GLOBALSTAR M094         
1 39074U 13005C   25325.83219972 -.00000111  00000+0 -40626-4 0  9996
2 39074  51.9968  62.1320 0000512 137.2381 222.8526 12.62264895592288
GLOBALSTAR M096         
1 39075U 13005D   25325.76613193 -.00000123  00000+0 -10710-3 0  9995
2 39075  52.0055 110.9705 0000824 119.4962 240.5987 12.62268930591191
GLOBALSTAR M078         
1 39076U 13005E   25325.97777816 -.00000132  00000+0 -15870-3 0  9994
2 39076  51.9859 194.6273 0001263 126.1213 233.9770 12.62271666589848
GLOBALSTAR M095         
1 39077U 13005F   25326.00390220 -.00000067  00000+0  20761-3 0  9991
2 39077  52.0059 191.8570 0000816 105.6798 254.4158 12.62266709589700
GLOBALSTAR M087         
1 52888U 22064A   25326.01682954 -.00000098  00000+0  30312-4 0  9998
2 52888  52.0012 333.1721 0000123 112.4710 247.6170 12.62260579164979
